[{"OBJECT_NAME":"APRIZESAT 2","OBJECT_ID":"2004-025A","EPOCH":"2026-04-05T10:25:29.869536","MEAN_MOTION":14.38009038,"ECCENTRICITY":0.01068302,"INCLINATION":98.095,"RA_OF_ASC_NODE":265.558,"ARG_OF_PERICENTER":109.5478,"MEAN_ANOMALY":251.7284,"EPHEMERIS_TYPE":0,"CLASSIFICATION_TYPE":"U","NORAD_CAT_ID":28366,"ELEMENT_SET_NO":999,"REV_AT_EPOCH":14118,"BSTAR":0.00012674886,"MEAN_MOTION_DOT":3.68e-6,"MEAN_MOTION_DDOT":0},{"OBJECT_NAME":"SAUDICOMSAT 1","OBJECT_ID":"2004-025D","EPOCH":"2026-04-05T18:17:43.266048","MEAN_MOTION":14.55419342,"ECCENTRICITY":0.0031053,"INCLINATION":98.5804,"RA_OF_ASC_NODE":103.9332,"ARG_OF_PERICENTER":244.4788,"MEAN_ANOMALY":115.3196,"EPHEMERIS_TYPE":0,"CLASSIFICATION_TYPE":"U","NORAD_CAT_ID":28369,"ELEMENT_SET_NO":999,"REV_AT_EPOCH":15359,"BSTAR":0.00014095,"MEAN_MOTION_DOT":5.66e-6,"MEAN_MOTION_DDOT":0},{"OBJECT_NAME":"SAUDICOMSAT 2","OBJECT_ID":"2004-025E","EPOCH":"2026-04-05T14:21:38.930400","MEAN_MOTION":14.49933464,"ECCENTRICITY":0.0056597,"INCLINATION":98.6677,"RA_OF_ASC_NODE":105.7842,"ARG_OF_PERICENTER":118.8404,"MEAN_ANOMALY":241.8487,"EPHEMERIS_TYPE":0,"CLASSIFICATION_TYPE":"U","NORAD_CAT_ID":28370,"ELEMENT_SET_NO":999,"REV_AT_EPOCH":14958,"BSTAR":0.00013844,"MEAN_MOTION_DOT":4.97e-6,"MEAN_MOTION_DDOT":0},{"OBJECT_NAME":"APRIZESAT 1","OBJECT_ID":"2004-025G","EPOCH":"2026-04-05T12:18:40.264992","MEAN_MOTION":14.51738577,"ECCENTRICITY":0.00449401,"INCLINATION":98.6339,"RA_OF_ASC_NODE":104.2505,"ARG_OF_PERICENTER":17.7331,"MEAN_ANOMALY":342.542,"EPHEMERIS_TYPE":0,"CLASSIFICATION_TYPE":"U","NORAD_CAT_ID":28372,"ELEMENT_SET_NO":999,"REV_AT_EPOCH":15136,"BSTAR":0.00013186214,"MEAN_MOTION_DOT":4.87e-6,"MEAN_MOTION_DDOT":0},{"OBJECT_NAME":"NANOSAT-1","OBJECT_ID":"2004-049B","EPOCH":"2026-04-05T19:58:26.108832","MEAN_MOTION":14.80011232,"ECCENTRICITY":0.00046,"INCLINATION":98.2154,"RA_OF_ASC_NODE":230.7779,"ARG_OF_PERICENTER":150.4575,"MEAN_ANOMALY":209.6897,"EPHEMERIS_TYPE":0,"CLASSIFICATION_TYPE":"U","NORAD_CAT_ID":28493,"ELEMENT_SET_NO":999,"REV_AT_EPOCH":14474,"BSTAR":0.00024372,"MEAN_MOTION_DOT":1.789e-5,"MEAN_MOTION_DDOT":0},{"OBJECT_NAME":"SAUDICOMSAT 7","OBJECT_ID":"2007-012C","EPOCH":"2026-04-05T10:14:09.091968","MEAN_MOTION":14.66020529,"ECCENTRICITY":0.00569842,"INCLINATION":98.3723,"RA_OF_ASC_NODE":68.0978,"ARG_OF_PERICENTER":65.0339,"MEAN_ANOMALY":295.6768,"EPHEMERIS_TYPE":0,"CLASSIFICATION_TYPE":"U","NORAD_CAT_ID":31119,"ELEMENT_SET_NO":999,"REV_AT_EPOCH":1177,"BSTAR":0.0002201641,"MEAN_MOTION_DOT":1.183e-5,"MEAN_MOTION_DDOT":0},{"OBJECT_NAME":"SAUDICOMSAT 6","OBJECT_ID":"2007-012E","EPOCH":"2026-04-05T15:18:23.905152","MEAN_MOTION":14.62472546,"ECCENTRICITY":0.0071537,"INCLINATION":98.4036,"RA_OF_ASC_NODE":61.8396,"ARG_OF_PERICENTER":191.721,"MEAN_ANOMALY":168.2329,"EPHEMERIS_TYPE":0,"CLASSIFICATION_TYPE":"U","NORAD_CAT_ID":31121,"ELEMENT_SET_NO":999,"REV_AT_EPOCH":958,"BSTAR":0.00015886,"MEAN_MOTION_DOT":7.81e-6,"MEAN_MOTION_DDOT":0},{"OBJECT_NAME":"SAUDICOMSAT 5","OBJECT_ID":"2007-012H","EPOCH":"2026-04-05T12:01:19.128576","MEAN_MOTION":14.68066298,"ECCENTRICITY":0.00474057,"INCLINATION":98.3436,"RA_OF_ASC_NODE":68.9348,"ARG_OF_PERICENTER":355.9999,"MEAN_ANOMALY":4.082,"EPHEMERIS_TYPE":0,"CLASSIFICATION_TYPE":"U","NORAD_CAT_ID":31124,"ELEMENT_SET_NO":999,"REV_AT_EPOCH":1293,"BSTAR":0.00024440846,"MEAN_MOTION_DOT":1.373e-5,"MEAN_MOTION_DDOT":0},{"OBJECT_NAME":"SAUDICOMSAT 3","OBJECT_ID":"2007-012J","EPOCH":"2026-04-05T20:36:38.269728","MEAN_MOTION":14.70597523,"ECCENTRICITY":0.0037857,"INCLINATION":98.3092,"RA_OF_ASC_NODE":69.8573,"ARG_OF_PERICENTER":281.2317,"MEAN_ANOMALY":78.4634,"EPHEMERIS_TYPE":0,"CLASSIFICATION_TYPE":"U","NORAD_CAT_ID":31125,"ELEMENT_SET_NO":999,"REV_AT_EPOCH":1419,"BSTAR":0.00022545,"MEAN_MOTION_DOT":1.331e-5,"MEAN_MOTION_DDOT":0},{"OBJECT_NAME":"SAUDICOMSAT 4","OBJECT_ID":"2007-012L","EPOCH":"2026-04-05T20:48:57.843360","MEAN_MOTION":14.64420832,"ECCENTRICITY":0.0064531,"INCLINATION":98.3927,"RA_OF_ASC_NODE":66.9952,"ARG_OF_PERICENTER":123.6865,"MEAN_ANOMALY":237.0513,"EPHEMERIS_TYPE":0,"CLASSIFICATION_TYPE":"U","NORAD_CAT_ID":31127,"ELEMENT_SET_NO":999,"REV_AT_EPOCH":1070,"BSTAR":0.00017438,"MEAN_MOTION_DOT":8.98e-6,"MEAN_MOTION_DDOT":0},{"OBJECT_NAME":"APRIZESAT 4","OBJECT_ID":"2009-041D","EPOCH":"2026-04-05T18:21:47.079936","MEAN_MOTION":14.83768636,"ECCENTRICITY":0.0043055,"INCLINATION":98.1445,"RA_OF_ASC_NODE":169.6399,"ARG_OF_PERICENTER":194.821,"MEAN_ANOMALY":165.1744,"EPHEMERIS_TYPE":0,"CLASSIFICATION_TYPE":"U","NORAD_CAT_ID":35684,"ELEMENT_SET_NO":999,"REV_AT_EPOCH":90062,"BSTAR":0.00016764,"MEAN_MOTION_DOT":1.351e-5,"MEAN_MOTION_DDOT":0},{"OBJECT_NAME":"APRIZESAT 3","OBJECT_ID":"2009-041F","EPOCH":"2026-04-05T20:49:23.293344","MEAN_MOTION":14.96003038,"ECCENTRICITY":0.0061093,"INCLINATION":98.1952,"RA_OF_ASC_NODE":245.6788,"ARG_OF_PERICENTER":306.4209,"MEAN_ANOMALY":53.1387,"EPHEMERIS_TYPE":0,"CLASSIFICATION_TYPE":"U","NORAD_CAT_ID":35686,"ELEMENT_SET_NO":999,"REV_AT_EPOCH":90556,"BSTAR":0.00017354,"MEAN_MOTION_DOT":1.951e-5,"MEAN_MOTION_DDOT":0},{"OBJECT_NAME":"S-NET D","OBJECT_ID":"2018-014G","EPOCH":"2026-04-05T17:45:34.759296","MEAN_MOTION":15.16004892,"ECCENTRICITY":0.0006556,"INCLINATION":97.5411,"RA_OF_ASC_NODE":1.0022,"ARG_OF_PERICENTER":269.8475,"MEAN_ANOMALY":90.2006,"EPHEMERIS_TYPE":0,"CLASSIFICATION_TYPE":"U","NORAD_CAT_ID":43186,"ELEMENT_SET_NO":999,"REV_AT_EPOCH":44778,"BSTAR":0.00040412,"MEAN_MOTION_DOT":7.702e-5,"MEAN_MOTION_DDOT":0},{"OBJECT_NAME":"S-NET B","OBJECT_ID":"2018-014H","EPOCH":"2026-04-05T16:25:00.006240","MEAN_MOTION":15.15974065,"ECCENTRICITY":0.0007254,"INCLINATION":97.5416,"RA_OF_ASC_NODE":0.9309,"ARG_OF_PERICENTER":264.3057,"MEAN_ANOMALY":95.7348,"EPHEMERIS_TYPE":0,"CLASSIFICATION_TYPE":"U","NORAD_CAT_ID":43187,"ELEMENT_SET_NO":999,"REV_AT_EPOCH":44777,"BSTAR":0.0004067,"MEAN_MOTION_DOT":7.745e-5,"MEAN_MOTION_DDOT":0},{"OBJECT_NAME":"S-NET A","OBJECT_ID":"2018-014J","EPOCH":"2026-04-05T17:44:27.253248","MEAN_MOTION":15.16011965,"ECCENTRICITY":0.0007071,"INCLINATION":97.5427,"RA_OF_ASC_NODE":1.1812,"ARG_OF_PERICENTER":264.8259,"MEAN_ANOMALY":95.2166,"EPHEMERIS_TYPE":0,"CLASSIFICATION_TYPE":"U","NORAD_CAT_ID":43188,"ELEMENT_SET_NO":999,"REV_AT_EPOCH":44778,"BSTAR":0.0004018,"MEAN_MOTION_DOT":7.659e-5,"MEAN_MOTION_DDOT":0},{"OBJECT_NAME":"S-NET C","OBJECT_ID":"2018-014K","EPOCH":"2026-04-05T16:30:00.214272","MEAN_MOTION":15.15966586,"ECCENTRICITY":0.0008552,"INCLINATION":97.544,"RA_OF_ASC_NODE":1.1934,"ARG_OF_PERICENTER":256.5358,"MEAN_ANOMALY":103.4922,"EPHEMERIS_TYPE":0,"CLASSIFICATION_TYPE":"U","NORAD_CAT_ID":43189,"ELEMENT_SET_NO":999,"REV_AT_EPOCH":44632,"BSTAR":0.00041097,"MEAN_MOTION_DOT":7.827e-5,"MEAN_MOTION_DDOT":0},{"OBJECT_NAME":"SALSAT","OBJECT_ID":"2020-068K","EPOCH":"2026-04-05T13:55:30.104256","MEAN_MOTION":15.28738181,"ECCENTRICITY":0.0009619,"INCLINATION":97.8868,"RA_OF_ASC_NODE":94.287,"ARG_OF_PERICENTER":186.5581,"MEAN_ANOMALY":173.5533,"EPHEMERIS_TYPE":0,"CLASSIFICATION_TYPE":"U","NORAD_CAT_ID":46495,"ELEMENT_SET_NO":999,"REV_AT_EPOCH":30426,"BSTAR":0.00035593,"MEAN_MOTION_DOT":9.877e-5,"MEAN_MOTION_DDOT":0}]
