APRIZESAT 2             
1 28366U 04025A   26095.43437349  .00000368  00000+0  12675-3 0  9995
2 28366  98.0950 265.5580 0106830 109.5478 251.7284 14.38009038141181
SAUDICOMSAT 1           
1 28369U 04025D   26095.76230632  .00000566  00000+0  14095-3 0  9998
2 28369  98.5804 103.9332 0031053 244.4788 115.3196 14.55419342153591
SAUDICOMSAT 2           
1 28370U 04025E   26095.59836725  .00000497  00000+0  13844-3 0  9990
2 28370  98.6677 105.7842 0056597 118.8404 241.8487 14.49933464149588
APRIZESAT 1             
1 28372U 04025G   26095.51296603  .00000487  00000+0  13186-3 0  9997
2 28372  98.6339 104.2505 0044940  17.7331 342.5420 14.51738577151366
NANOSAT-1               
1 28493U 04049B   26095.83224663  .00001789  00000+0  24372-3 0  9994
2 28493  98.2154 230.7779 0004600 150.4575 209.6897 14.80011232144742
SAUDICOMSAT 7           
1 31119U 07012C   26095.42649412  .00001183  00000+0  22016-3 0  9995
2 31119  98.3723  68.0978 0056984  65.0339 295.6768 14.66020529 11779
SAUDICOMSAT 6           
1 31121U 07012E   26095.63777668  .00000781  00000+0  15886-3 0  9996
2 31121  98.4036  61.8396 0071537 191.7210 168.2329 14.62472546  9581
SAUDICOMSAT 5           
1 31124U 07012H   26095.50091584  .00001373  00000+0  24441-3 0  9996
2 31124  98.3436  68.9348 0047405 355.9999   4.0820 14.68066298 12932
SAUDICOMSAT 3           
1 31125U 07012J   26095.85877627  .00001331  00000+0  22545-3 0  9992
2 31125  98.3092  69.8573 0037857 281.2317  78.4634 14.70597523 14197
SAUDICOMSAT 4           
1 31127U 07012L   26095.86733615  .00000898  00000+0  17438-3 0  9995
2 31127  98.3927  66.9952 0064531 123.6865 237.0513 14.64420832 10704
APRIZESAT 4             
1 35684U 09041D   26095.76512824  .00001351  00000+0  16764-3 0  9993
2 35684  98.1445 169.6399 0043055 194.8210 165.1744 14.83768636900621
APRIZESAT 3             
1 35686U 09041F   26095.86763071  .00001951  00000+0  17354-3 0  9990
2 35686  98.1952 245.6788 0061093 306.4209  53.1387 14.96003038905563
S-NET D                 
1 43186U 18014G   26095.73998564  .00007702  00000+0  40412-3 0  9998
2 43186  97.5411   1.0022 0006556 269.8475  90.2006 15.16004892447782
S-NET B                 
1 43187U 18014H   26095.68402785  .00007745  00000+0  40670-3 0  9991
2 43187  97.5416   0.9309 0007254 264.3057  95.7348 15.15974065447771
S-NET A                 
1 43188U 18014J   26095.73920432  .00007659  00000+0  40180-3 0  9992
2 43188  97.5427   1.1812 0007071 264.8259  95.2166 15.16011965447788
S-NET C                 
1 43189U 18014K   26095.68750248  .00007827  00000+0  41097-3 0  9998
2 43189  97.5440   1.1934 0008552 256.5358 103.4922 15.15966586446320
SALSAT                  
1 46495U 20068K   26095.58020954  .00009877  00000+0  35593-3 0  9997
2 46495  97.8868  94.2870 0009619 186.5581 173.5533 15.28738181304261
